{
  "norad_id": 67580,
  "name": "STARLINK-36612",
  "history": [
    {
      "epoch": "2026-03-28T21:49:29.242272Z",
      "apogee_km": 423.5380194694444,
      "perigee_km": 418.8316648767286,
      "latitude_deg": 1.581375529828303e-05,
      "longitude_deg": -4.581792996874671,
      "height_km": 423.0108349851462,
      "semi_major_axis_km": 6799.321842173086,
      "eccentricity": 0.00034609,
      "inclination_deg": 97.2856,
      "raan_deg": 149.1131,
      "arg_perigee_deg": 56.4308,
      "mean_anomaly_deg": 303.7273,
      "mean_motion_rev_day": 15.48475591
    },
    {
      "epoch": "2026-03-29T04:00:01.999584Z",
      "apogee_km": 426.6365288353363,
      "perigee_km": 424.5845185821863,
      "latitude_deg": -7.305436893308174,
      "longitude_deg": -96.2801447302244,
      "height_km": 429.83121018451675,
      "semi_major_axis_km": 6803.747523708761,
      "eccentricity": 0.0001508,
      "inclination_deg": 97.2846,
      "raan_deg": 149.3711,
      "arg_perigee_deg": 74.5984,
      "mean_anomaly_deg": 278.2248,
      "mean_motion_rev_day": 15.46964965
    }
  ]
}